{
    "links": {
        "self": "http://www.neowsapp.com/rest/v1/neo/3824980?api_key=iIulBulltgU6a56xZRHN4H3l9WmuAYTsLGpBGhQ2"
    },
    "id": "3824980",
    "neo_reference_id": "3824980",
    "name": "(2018 KU)",
    "designation": "2018 KU",
    "nasa_jpl_url": "http://ssd.jpl.nasa.gov/sbdb.cgi?sstr=3824980",
    "absolute_magnitude_h": 26.4,
    "estimated_diameter": {
        "kilometers": {
            "estimated_diameter_min": 0.0139493823,
            "estimated_diameter_max": 0.0311917671
        },
        "meters": {
            "estimated_diameter_min": 13.9493822934,
            "estimated_diameter_max": 31.1917670523
        },
        "miles": {
            "estimated_diameter_min": 0.0086677416,
            "estimated_diameter_max": 0.0193816595
        },
        "feet": {
            "estimated_diameter_min": 45.7656914036,
            "estimated_diameter_max": 102.3351970157
        }
    },
    "is_potentially_hazardous_asteroid": false,
    "close_approach_data": [
        {
            "close_approach_date": "1976-06-18",
            "close_approach_date_full": "1976-Jun-18 23:32",
            "epoch_date_close_approach": 203988720000,
            "relative_velocity": {
                "kilometers_per_second": "17.8060345528",
                "kilometers_per_hour": "64101.7243900325",
                "miles_per_hour": "39830.3186911288"
            },
            "miss_distance": {
                "astronomical": "0.3456226384",
                "lunar": "134.4472063376",
                "kilometers": "51704410.528420208",
                "miles": "32127630.9243185504"
            },
            "orbiting_body": "Earth"
        },
        {
            "close_approach_date": "1984-02-25",
            "close_approach_date_full": "1984-Feb-25 06:39",
            "epoch_date_close_approach": 446539140000,
            "relative_velocity": {
                "kilometers_per_second": "18.7208514681",
                "kilometers_per_hour": "67395.0652851496",
                "miles_per_hour": "41876.6726489864"
            },
            "miss_distance": {
                "astronomical": "0.3838405901",
                "lunar": "149.3139895489",
                "kilometers": "57421734.698503087",
                "miles": "35680211.4282611206"
            },
            "orbiting_body": "Earth"
        },
        {
            "close_approach_date": "2018-05-16",
            "close_approach_date_full": "2018-May-16 12:53",
            "epoch_date_close_approach": 1526475180000,
            "relative_velocity": {
                "kilometers_per_second": "7.7936680023",
                "kilometers_per_hour": "28057.2048081378",
                "miles_per_hour": "17433.6559542565"
            },
            "miss_distance": {
                "astronomical": "0.0194210497",
                "lunar": "7.5547883333",
                "kilometers": "2905347.668284139",
                "miles": "1805299.3282295582"
            },
            "orbiting_body": "Earth"
        },
        {
            "close_approach_date": "2026-02-22",
            "close_approach_date_full": "2026-Feb-22 17:49",
            "epoch_date_close_approach": 1771782540000,
            "relative_velocity": {
                "kilometers_per_second": "20.390099871",
                "kilometers_per_hour": "73404.3595356929",
                "miles_per_hour": "45610.6144014976"
            },
            "miss_distance": {
                "astronomical": "0.4418215293",
                "lunar": "171.8685748977",
                "kilometers": "66095559.703422591",
                "miles": "41069876.3642341158"
            },
            "orbiting_body": "Earth"
        }
    ],
    "orbital_data": {
        "orbit_id": "6",
        "orbit_determination_date": "2018-06-19 06:29:58",
        "first_observation_date": "2018-05-18",
        "last_observation_date": "2018-06-15",
        "data_arc_in_days": 28,
        "observations_used": 41,
        "orbit_uncertainty": "7",
        "minimum_orbit_intersection": ".0121616",
        "jupiter_tisserand_invariant": "3.789",
        "epoch_osculation": "2459000.5",
        "eccentricity": ".4766984838575862",
        "semi_major_axis": "1.908253240558782",
        "inclination": "3.980594138363896",
        "ascending_node_longitude": "238.048174688866",
        "orbital_period": "962.8362654592132",
        "perihelion_distance": ".9985918139680852",
        "perihelion_argument": "332.6208222642409",
        "aphelion_distance": "2.81791466714948",
        "perihelion_time": "2459197.352509559998",
        "mean_anomaly": "286.3977625439773",
        "mean_motion": ".3738953474382296",
        "equinox": "J2000",
        "orbit_class": {
            "orbit_class_type": "APO",
            "orbit_class_description": "Near-Earth asteroid orbits which cross the Earth’s orbit similar to that of 1862 Apollo",
            "orbit_class_range": "a (semi-major axis) > 1.0 AU; q (perihelion) < 1.017 AU"
        }
    },
    "is_sentry_object": false
}